{"fetched_at":"2026-07-21T07:06:33.367Z","source":"https://celestrak.org/NORAD/elements/gp.php?GROUP=spire&FORMAT=JSON","constellation":"spire","records":[{"OBJECT_NAME":"LEMUR-1","OBJECT_ID":"2014-033AL","EPOCH":"2026-07-20T20:13:43.785696","CLASSIFICATION_TYPE":"U","MEAN_MOTION":14.853471,"ECCENTRICITY":0.00473034,"INCLINATION":97.7917,"RA_OF_ASC_NODE":350.9099,"ARG_OF_PERICENTER":329.149,"MEAN_ANOMALY":30.6947,"EPHEMERIS_TYPE":0,"NORAD_CAT_ID":40044,"ELEMENT_SET_NO":999,"REV_AT_EPOCH":65046,"BSTAR":0.00011442181,"MEAN_MOTION_DOT":0.00000947,"MEAN_MOTION_DDOT":0},{"OBJECT_NAME":"LEMUR-2-GREENBERG","OBJECT_ID":"2017-042N","EPOCH":"2026-07-20T20:37:23.011104","CLASSIFICATION_TYPE":"U","MEAN_MOTION":15.322649,"ECCENTRICITY":0.00074888,"INCLINATION":97.3843,"RA_OF_ASC_NODE":22.3562,"ARG_OF_PERICENTER":235.8206,"MEAN_ANOMALY":124.2326,"EPHEMERIS_TYPE":0,"NORAD_CAT_ID":42837,"ELEMENT_SET_NO":999,"REV_AT_EPOCH":49354,"BSTAR":0.00039253362,"MEAN_MOTION_DOT":0.00012166,"MEAN_MOTION_DDOT":0},{"OBJECT_NAME":"LEMUR-2-ANDIS","OBJECT_ID":"2017-042P","EPOCH":"2026-07-20T00:38:02.866848","CLASSIFICATION_TYPE":"U","MEAN_MOTION":15.36045973,"ECCENTRICITY":0.00074525,"INCLINATION":97.3691,"RA_OF_ASC_NODE":21.8287,"ARG_OF_PERICENTER":238.1835,"MEAN_ANOMALY":121.8684,"EPHEMERIS_TYPE":0,"NORAD_CAT_ID":42838,"ELEMENT_SET_NO":999,"REV_AT_EPOCH":49349,"BSTAR":0.00035312306,"MEAN_MOTION_DOT":0.00012331,"MEAN_MOTION_DDOT":0},{"OBJECT_NAME":"LEMUR-2-MONSON","OBJECT_ID":"2017-042Q","EPOCH":"2026-07-20T22:36:30.525408","CLASSIFICATION_TYPE":"U","MEAN_MOTION":15.28850794,"ECCENTRICITY":0.00057124,"INCLINATION":97.4104,"RA_OF_ASC_NODE":22.3576,"ARG_OF_PERICENTER":221.3717,"MEAN_ANOMALY":138.7091,"EPHEMERIS_TYPE":0,"NORAD_CAT_ID":42839,"ELEMENT_SET_NO":999,"REV_AT_EPOCH":49332,"BSTAR":0.00038003957,"MEAN_MOTION_DOT":0.00010588,"MEAN_MOTION_DDOT":0},{"OBJECT_NAME":"LEMUR-2-FURIAUS","OBJECT_ID":"2017-042R","EPOCH":"2026-07-20T22:35:31.457184","CLASSIFICATION_TYPE":"U","MEAN_MOTION":15.31247624,"ECCENTRICITY":0.00056847,"INCLINATION":97.3789,"RA_OF_ASC_NODE":20.3171,"ARG_OF_PERICENTER":304.8724,"MEAN_ANOMALY":55.1982,"EPHEMERIS_TYPE":0,"NORAD_CAT_ID":42840,"ELEMENT_SET_NO":999,"REV_AT_EPOCH":49337,"BSTAR":0.00040433934,"MEAN_MOTION_DOT":0.00012138,"MEAN_MOTION_DDOT":0},{"OBJECT_NAME":"LEMUR-2-PETERG","OBJECT_ID":"2017-042S","EPOCH":"2026-07-20T10:06:34.043904","CLASSIFICATION_TYPE":"U","MEAN_MOTION":15.35147787,"ECCENTRICITY":0.00037037,"INCLINATION":97.4006,"RA_OF_ASC_NODE":26.5391,"ARG_OF_PERICENTER":198.4784,"MEAN_ANOMALY":161.6325,"EPHEMERIS_TYPE":0,"NORAD_CAT_ID":42841,"ELEMENT_SET_NO":999,"REV_AT_EPOCH":49353,"BSTAR":0.00034433019,"MEAN_MOTION_DOT":0.00011672,"MEAN_MOTION_DDOT":0},{"OBJECT_NAME":"LEMUR-2-DEMBITZ","OBJECT_ID":"2017-042T","EPOCH":"2026-07-20T10:31:15.605184","CLASSIFICATION_TYPE":"U","MEAN_MOTION":15.31206759,"ECCENTRICITY":0.00052108,"INCLINATION":97.3838,"RA_OF_ASC_NODE":22.8641,"ARG_OF_PERICENTER":250.0193,"MEAN_ANOMALY":110.0487,"EPHEMERIS_TYPE":0,"NORAD_CAT_ID":42842,"ELEMENT_SET_NO":999,"REV_AT_EPOCH":49343,"BSTAR":0.00032386587,"MEAN_MOTION_DOT":0.00009691,"MEAN_MOTION_DDOT":0},{"OBJECT_NAME":"LEMUR-2-ZACHARY","OBJECT_ID":"2017-042W","EPOCH":"2026-07-20T21:59:13.503264","CLASSIFICATION_TYPE":"U","MEAN_MOTION":15.53082413,"ECCENTRICITY":0.00029861,"INCLINATION":97.3582,"RA_OF_ASC_NODE":34.3397,"ARG_OF_PERICENTER":219.5977,"MEAN_ANOMALY":140.5058,"EPHEMERIS_TYPE":0,"NORAD_CAT_ID":42845,"ELEMENT_SET_NO":999,"REV_AT_EPOCH":49443,"BSTAR":0.0005827715,"MEAN_MOTION_DOT":0.00036465,"MEAN_MOTION_DDOT":0},{"OBJECT_NAME":"LEMUR-2-AMANDA-SVANTE","OBJECT_ID":"2021-034B","EPOCH":"2026-07-20T20:35:02.115168","CLASSIFICATION_TYPE":"U","MEAN_MOTION":15.36180869,"ECCENTRICITY":0.00047874,"INCLINATION":97.574,"RA_OF_ASC_NODE":281.0779,"ARG_OF_PERICENTER":131.023,"MEAN_ANOMALY":229.1428,"EPHEMERIS_TYPE":0,"NORAD_CAT_ID":48269,"ELEMENT_SET_NO":999,"REV_AT_EPOCH":28622,"BSTAR":0.00067481535,"MEAN_MOTION_DOT":0.00023761,"MEAN_MOTION_DDOT":0},{"OBJECT_NAME":"LEMUR-2-SPECIAL-K","OBJECT_ID":"2021-034F","EPOCH":"2026-07-20T19:04:36.454368","CLASSIFICATION_TYPE":"U","MEAN_MOTION":15.76795894,"ECCENTRICITY":0.00061937,"INCLINATION":97.5625,"RA_OF_ASC_NODE":291.3914,"ARG_OF_PERICENTER":210.4851,"MEAN_ANOMALY":149.6055,"EPHEMERIS_TYPE":0,"NORAD_CAT_ID":48273,"ELEMENT_SET_NO":999,"REV_AT_EPOCH":28696,"BSTAR":0.0013543084,"MEAN_MOTION_DOT":0.00222432,"MEAN_MOTION_DDOT":0},{"OBJECT_NAME":"LEMUR-2-EMBRIONOVIS","OBJECT_ID":"2023-084AQ","EPOCH":"2026-07-20T21:42:17.767584","CLASSIFICATION_TYPE":"U","MEAN_MOTION":15.38325154,"ECCENTRICITY":0.00087682,"INCLINATION":97.6332,"RA_OF_ASC_NODE":347.426,"ARG_OF_PERICENTER":185.5549,"MEAN_ANOMALY":174.5599,"EPHEMERIS_TYPE":0,"NORAD_CAT_ID":56970,"ELEMENT_SET_NO":999,"REV_AT_EPOCH":17286,"BSTAR":0.00026694621,"MEAN_MOTION_DOT":0.00010011,"MEAN_MOTION_DDOT":0},{"OBJECT_NAME":"LEMUR-2-DEVERILL-M-T","OBJECT_ID":"2023-100F","EPOCH":"2026-07-20T21:06:15.109920","CLASSIFICATION_TYPE":"U","MEAN_MOTION":15.41269407,"ECCENTRICITY":0.00047938,"INCLINATION":99.4447,"RA_OF_ASC_NODE":250.412,"ARG_OF_PERICENTER":272.8645,"MEAN_ANOMALY":87.2047,"EPHEMERIS_TYPE":0,"NORAD_CAT_ID":57391,"ELEMENT_SET_NO":999,"REV_AT_EPOCH":16643,"BSTAR":0.00046318569,"MEAN_MOTION_DOT":0.00019184,"MEAN_MOTION_DDOT":0},{"OBJECT_NAME":"LEMUR-2-BASS","OBJECT_ID":"2023-174D","EPOCH":"2026-07-20T18:56:23.056800","CLASSIFICATION_TYPE":"U","MEAN_MOTION":15.44109921,"ECCENTRICITY":0.00072883,"INCLINATION":97.3837,"RA_OF_ASC_NODE":286.9953,"ARG_OF_PERICENTER":61.4078,"MEAN_ANOMALY":298.7903,"EPHEMERIS_TYPE":0,"NORAD_CAT_ID":58259,"ELEMENT_SET_NO":999,"REV_AT_EPOCH":15054,"BSTAR":0.00023892323,"MEAN_MOTION_DOT":0.00010852,"MEAN_MOTION_DDOT":0},{"OBJECT_NAME":"LEMUR-2-JK0903EM1407","OBJECT_ID":"2023-174CJ","EPOCH":"2026-07-20T18:55:28.805376","CLASSIFICATION_TYPE":"U","MEAN_MOTION":15.53256968,"ECCENTRICITY":0.00030275,"INCLINATION":97.3917,"RA_OF_ASC_NODE":293.2459,"ARG_OF_PERICENTER":10.0504,"MEAN_ANOMALY":350.0809,"EPHEMERIS_TYPE":0,"NORAD_CAT_ID":58336,"ELEMENT_SET_NO":999,"REV_AT_EPOCH":15094,"BSTAR":0.00029397328,"MEAN_MOTION_DOT":0.0001842,"MEAN_MOTION_DDOT":0},{"OBJECT_NAME":"LEMUR-2-MJR092620","OBJECT_ID":"2023-174CN","EPOCH":"2026-07-20T21:24:30.591072","CLASSIFICATION_TYPE":"U","MEAN_MOTION":15.45994532,"ECCENTRICITY":0.00047722,"INCLINATION":97.3966,"RA_OF_ASC_NODE":292.5697,"ARG_OF_PERICENTER":8.9922,"MEAN_ANOMALY":351.1412,"EPHEMERIS_TYPE":0,"NORAD_CAT_ID":58340,"ELEMENT_SET_NO":999,"REV_AT_EPOCH":15085,"BSTAR":0.0002865011,"MEAN_MOTION_DOT":0.00013894,"MEAN_MOTION_DDOT":0},{"OBJECT_NAME":"LEMUR-2-NIMBUS2000","OBJECT_ID":"2024-022A","EPOCH":"2026-07-20T07:59:18.248640","CLASSIFICATION_TYPE":"U","MEAN_MOTION":15.41247209,"ECCENTRICITY":0.0008203,"INCLINATION":97.4083,"RA_OF_ASC_NODE":51.7757,"ARG_OF_PERICENTER":10.9156,"MEAN_ANOMALY":349.2267,"EPHEMERIS_TYPE":0,"NORAD_CAT_ID":58899,"ELEMENT_SET_NO":999,"REV_AT_EPOCH":13737,"BSTAR":0.00030980263,"MEAN_MOTION_DOT":0.00012813,"MEAN_MOTION_DDOT":0}]}
