LEMUR-1                 
1 40044U 14033AL  26201.84286789  .00000947  00000+0  11442-3 0  9990
2 40044  97.7917 350.9099 0047303 329.1490  30.6947 14.85347100650467
LEMUR-2-GREENBERG       
1 42837U 17042N   26201.85929411  .00012166  00000+0  39253-3 0  9998
2 42837  97.3843  22.3562 0007488 235.8206 124.2326 15.32264900493540
LEMUR-2-ANDIS           
1 42838U 17042P   26201.02642207  .00012331  00000+0  35312-3 0  9999
2 42838  97.3691  21.8287 0007452 238.1835 121.8684 15.36045973493490
LEMUR-2-MONSON          
1 42839U 17042Q   26201.94201997  .00010588  00000+0  38004-3 0  9991
2 42839  97.4104  22.3576 0005712 221.3717 138.7091 15.28850794493325
LEMUR-2-FURIAUS         
1 42840U 17042R   26201.94133631  .00012138  00000+0  40434-3 0  9995
2 42840  97.3789  20.3171 0005684 304.8724  55.1982 15.31247624493379
LEMUR-2-PETERG          
1 42841U 17042S   26201.42122736  .00011672  00000+0  34433-3 0  9997
2 42841  97.4006  26.5391 0003703 198.4784 161.6325 15.35147787493533
LEMUR-2-DEMBITZ         
1 42842U 17042T   26201.43837506  .00009691  00000+0  32387-3 0  9991
2 42842  97.3838  22.8641 0005210 250.0193 110.0487 15.31206759493434
LEMUR-2-ZACHARY         
1 42845U 17042W   26201.91612851  .00036465  00000+0  58277-3 0  9996
2 42845  97.3582  34.3397 0002986 219.5977 140.5058 15.53082413494432
LEMUR-2-AMANDA-SVANTE   
1 48269U 21034B   26201.85766337  .00023761  00000+0  67482-3 0  9993
2 48269  97.5740 281.0779 0004787 131.0230 229.1428 15.36180869286228
LEMUR-2-SPECIAL-K       
1 48273U 21034F   26201.79486637  .00222432  00000+0  13543-2 0  9997
2 48273  97.5625 291.3914 0006193 210.4851 149.6055 15.76795894286961
LEMUR-2-EMBRIONOVIS     
1 56970U 23084AQ  26201.90437231  .00010011  00000+0  26695-3 0  9997
2 56970  97.6332 347.4260 0008768 185.5549 174.5599 15.38325154172862
LEMUR-2-DEVERILL-M-T    
1 57391U 23100F   26201.87934155  .00019184  00000+0  46319-3 0  9992
2 57391  99.4447 250.4120 0004793 272.8645  87.2047 15.41269407166432
LEMUR-2-BASS            
1 58259U 23174D   26201.78915575  .00010852  00000+0  23892-3 0  9996
2 58259  97.3837 286.9953 0007288  61.4078 298.7903 15.44109921150540
LEMUR-2-JK0903EM1407    
1 58336U 23174CJ  26201.78852784  .00018420  00000+0  29397-3 0  9999
2 58336  97.3917 293.2459 0003027  10.0504 350.0809 15.53256968150943
LEMUR-2-MJR092620       
1 58340U 23174CN  26201.89202073  .00013894  00000+0  28650-3 0  9997
2 58340  97.3966 292.5697 0004772   8.9922 351.1412 15.45994532150855
LEMUR-2-NIMBUS2000      
1 58899U 24022A   26201.33285010  .00012813  00000+0  30980-3 0  9999
2 58899  97.4083  51.7757 0008203  10.9156 349.2267 15.41247209137378
